{
  "type": "FeatureCollection",
  "features": [
    {
      "type": "Feature",
      "properties": {
        "norad_id": 43823,
        "name": "GEO-KOMPSAT-2A",
        "group": "weather",
        "lat": -0.023934651254320424,
        "lon": -53.430095462464095,
        "alt_km": 35788.03378401237,
        "timestamp": "2025-12-22T05:49:03.124941+00:00",
        "meta_object_name": "GEO-KOMPSAT-2A",
        "meta_object_id": "2018-100A",
        "meta_epoch": "2025-12-21T17:13:54.575328",
        "meta_mean_motion": 1.00270576,
        "meta_eccentricity": 3.96e-05,
        "meta_inclination": 0.0512,
        "meta_ra_of_asc_node": 130.9013,
        "meta_arg_of_pericenter": 331.6915,
        "meta_mean_anomaly": 14.6864,
        "meta_ephemeris_type": 0,
        "meta_classification_type": "U",
        "meta_norad_cat_id": 43823,
        "meta_element_set_no": 999,
        "meta_rev_at_epoch": 2585,
        "meta_bstar": 0,
        "meta_mean_motion_dot": -3.21e-06,
        "meta_mean_motion_ddot": 0,
        "tle_line1": "1 43823U 18100A   25355.71799277 -.00000321  00000+0  00000+0 0  9994",
        "tle_line2": "2 43823   0.0512 130.9013 0000396 331.6915  14.6864  1.00270576 25850"
      },
      "geometry": {
        "type": "Point",
        "coordinates": [
          -53.430095462464095,
          -0.023934651254320424
        ]
      }
    },
    {
      "type": "Feature",
      "properties": {
        "norad_id": 44387,
        "name": "METEOR-M2 2",
        "group": "weather",
        "lat": 66.26381536022949,
        "lon": 176.95715894931448,
        "alt_km": 803.2183597943895,
        "timestamp": "2025-12-22T05:49:03.124953+00:00",
        "meta_object_name": "METEOR-M2 2",
        "meta_object_id": "2019-038A",
        "meta_epoch": "2025-12-21T20:51:48.178368",
        "meta_mean_motion": 14.24294642,
        "meta_eccentricity": 0.0001673,
        "meta_inclination": 98.8974,
        "meta_ra_of_asc_node": 335.7097,
        "meta_arg_of_pericenter": 130.2361,
        "meta_mean_anomaly": 229.8964,
        "meta_ephemeris_type": 0,
        "meta_classification_type": "U",
        "meta_norad_cat_id": 44387,
        "meta_element_set_no": 999,
        "meta_rev_at_epoch": 33605,
        "meta_bstar": 2.5175e-05,
        "meta_mean_motion_dot": 1.2e-07,
        "meta_mean_motion_ddot": 0,
        "tle_line1": "1 44387U 19038A   25355.86930762  .00000012  00000+0  25175-4 0  9994",
        "tle_line2": "2 44387  98.8974 335.7097 0001673 130.2361 229.8964 14.24294642336055"
      },
      "geometry": {
        "type": "Point",
        "coordinates": [
          176.95715894931448,
          66.26381536022949
        ]
      }
    },
    {
      "type": "Feature",
      "properties": {
        "norad_id": 47719,
        "name": "ARKTIKA-M 1",
        "group": "weather",
        "lat": 62.524487838974295,
        "lon": 159.10356068458546,
        "alt_km": 38788.97024557185,
        "timestamp": "2025-12-22T05:49:03.124968+00:00",
        "meta_object_name": "ARKTIKA-M 1",
        "meta_object_id": "2021-016A",
        "meta_epoch": "2025-12-21T01:10:59.170944",
        "meta_mean_motion": 2.00630317,
        "meta_eccentricity": 0.7208476,
        "meta_inclination": 63.1763,
        "meta_ra_of_asc_node": 82.8606,
        "meta_arg_of_pericenter": 269.1559,
        "meta_mean_anomaly": 15.5506,
        "meta_ephemeris_type": 0,
        "meta_classification_type": "U",
        "meta_norad_cat_id": 47719,
        "meta_element_set_no": 999,
        "meta_rev_at_epoch": 3521,
        "meta_bstar": 0,
        "meta_mean_motion_dot": -1e-06,
        "meta_mean_motion_ddot": 0,
        "tle_line1": "1 47719U 21016A   25355.04929596 -.00000100  00000+0  00000+0 0  9992",
        "tle_line2": "2 47719  63.1763  82.8606 7208476 269.1559  15.5506  2.00630317 35212"
      },
      "geometry": {
        "type": "Point",
        "coordinates": [
          159.10356068458546,
          62.524487838974295
        ]
      }
    },
    {
      "type": "Feature",
      "properties": {
        "norad_id": 49008,
        "name": "FENGYUN 3E",
        "group": "weather",
        "lat": -76.40720573695509,
        "lon": 36.19922559272884,
        "alt_km": 832.9458438766142,
        "timestamp": "2025-12-22T05:49:03.124980+00:00",
        "meta_object_name": "FENGYUN 3E",
        "meta_object_id": "2021-062A",
        "meta_epoch": "2025-12-21T20:02:39.698016",
        "meta_mean_motion": 14.19881497,
        "meta_eccentricity": 8.25e-05,
        "meta_inclination": 98.7469,
        "meta_ra_of_asc_node": 356.2482,
        "meta_arg_of_pericenter": 202.5087,
        "meta_mean_anomaly": 157.6053,
        "meta_ephemeris_type": 0,
        "meta_classification_type": "U",
        "meta_norad_cat_id": 49008,
        "meta_element_set_no": 999,
        "meta_rev_at_epoch": 23141,
        "meta_bstar": 5.8973e-05,
        "meta_mean_motion_dot": 8.1e-07,
        "meta_mean_motion_ddot": 0,
        "tle_line1": "1 49008U 21062A   25355.83518169  .00000081  00000+0  58973-4 0  9997",
        "tle_line2": "2 49008  98.7469 356.2482 0000825 202.5087 157.6053 14.19881497231415"
      },
      "geometry": {
        "type": "Point",
        "coordinates": [
          36.19922559272884,
          -76.40720573695509
        ]
      }
    },
    {
      "type": "Feature",
      "properties": {
        "norad_id": 51850,
        "name": "GOES 18",
        "group": "weather",
        "lat": 0.00208332299747699,
        "lon": 41.314787244419726,
        "alt_km": 35786.011847106645,
        "timestamp": "2025-12-22T05:49:03.124992+00:00",
        "meta_object_name": "GOES 18",
        "meta_object_id": "2022-021A",
        "meta_epoch": "2025-12-21T15:58:16.817088",
        "meta_mean_motion": 1.00270605,
        "meta_eccentricity": 3.4e-05,
        "meta_inclination": 0.015,
        "meta_ra_of_asc_node": 120.8111,
        "meta_arg_of_pericenter": 204.6624,
        "meta_mean_anomaly": 227.5856,
        "meta_ephemeris_type": 0,
        "meta_classification_type": "U",
        "meta_norad_cat_id": 51850,
        "meta_element_set_no": 999,
        "meta_rev_at_epoch": 481,
        "meta_bstar": 0,
        "meta_mean_motion_dot": 1.19e-06,
        "meta_mean_motion_ddot": 0,
        "tle_line1": "1 51850U 22021A   25355.66547242  .00000119  00000+0  00000+0 0  9991",
        "tle_line2": "2 51850   0.0150 120.8111 0000340 204.6624 227.5856  1.00270605  4811"
      },
      "geometry": {
        "type": "Point",
        "coordinates": [
          41.314787244419726,
          0.00208332299747699
        ]
      }
    },
    {
      "type": "Feature",
      "properties": {
        "norad_id": 54234,
        "name": "NOAA 21 (JPSS-2)",
        "group": "weather",
        "lat": -80.07505535153498,
        "lon": -5.93295749046271,
        "alt_km": 834.5921427388257,
        "timestamp": "2025-12-22T05:49:03.125002+00:00",
        "meta_object_name": "NOAA 21 (JPSS-2)",
        "meta_object_id": "2022-150A",
        "meta_epoch": "2025-12-21T20:04:07.968576",
        "meta_mean_motion": 14.1952645,
        "meta_eccentricity": 0.0001815,
        "meta_inclination": 98.7475,
        "meta_ra_of_asc_node": 292.0314,
        "meta_arg_of_pericenter": 19.7364,
        "meta_mean_anomaly": 340.3882,
        "meta_ephemeris_type": 0,
        "meta_classification_type": "U",
        "meta_norad_cat_id": 54234,
        "meta_element_set_no": 999,
        "meta_rev_at_epoch": 16138,
        "meta_bstar": 4.4681e-05,
        "meta_mean_motion_dot": 5e-07,
        "meta_mean_motion_ddot": 0,
        "tle_line1": "1 54234U 22150A   25355.83620334  .00000050  00000+0  44681-4 0  9998",
        "tle_line2": "2 54234  98.7475 292.0314 0001815  19.7364 340.3882 14.19526450161380"
      },
      "geometry": {
        "type": "Point",
        "coordinates": [
          -5.93295749046271,
          -80.07505535153498
        ]
      }
    },
    {
      "type": "Feature",
      "properties": {
        "norad_id": 54743,
        "name": "METEOSAT-12 (MTG-I1)",
        "group": "weather",
        "lat": 0.3207238985146182,
        "lon": 177.97676019506181,
        "alt_km": 35786.00789657012,
        "timestamp": "2025-12-22T05:49:03.125014+00:00",
        "meta_object_name": "METEOSAT-12 (MTG-I1)",
        "meta_object_id": "2022-170C",
        "meta_epoch": "2025-12-21T18:19:56.678016",
        "meta_mean_motion": 1.00270703,
        "meta_eccentricity": 0.0001496,
        "meta_inclination": 0.6961,
        "meta_ra_of_asc_node": 25.0874,
        "meta_arg_of_pericenter": 239.9532,
        "meta_mean_anomaly": 100.2119,
        "meta_ephemeris_type": 0,
        "meta_classification_type": "U",
        "meta_norad_cat_id": 54743,
        "meta_element_set_no": 999,
        "meta_rev_at_epoch": 1119,
        "meta_bstar": 0,
        "meta_mean_motion_dot": 1.5e-07,
        "meta_mean_motion_ddot": 0,
        "tle_line1": "1 54743U 22170C   25355.76385044  .00000015  00000+0  00000+0 0  9996",
        "tle_line2": "2 54743   0.6961  25.0874 0001496 239.9532 100.2119  1.00270703 11192"
      },
      "geometry": {
        "type": "Point",
        "coordinates": [
          177.97676019506181,
          0.3207238985146182
        ]
      }
    }
  ]
}